{"fetched_at":"2026-07-23T07:05:18.920Z","source":"https://celestrak.org/NORAD/elements/gp.php?GROUP=oneweb&FORMAT=JSON","constellation":"oneweb","records":[{"OBJECT_NAME":"ONEWEB-0685","OBJECT_ID":"2022-166AP","EPOCH":"2026-07-22T20:00:01.999872","CLASSIFICATION_TYPE":"U","MEAN_MOTION":13.22703159,"ECCENTRICITY":0.00042885,"INCLINATION":87.9229,"RA_OF_ASC_NODE":236.8839,"ARG_OF_PERICENTER":85.2119,"MEAN_ANOMALY":340.3119,"EPHEMERIS_TYPE":0,"NORAD_CAT_ID":54679,"ELEMENT_SET_NO":999,"REV_AT_EPOCH":519,"BSTAR":0.048725955,"MEAN_MOTION_DOT":0.00020448,"MEAN_MOTION_DDOT":0},{"OBJECT_NAME":"ONEWEB-0712","OBJECT_ID":"2022-166AQ","EPOCH":"2026-07-22T11:23:24.054144","CLASSIFICATION_TYPE":"U","MEAN_MOTION":13.16594449,"ECCENTRICITY":0.0001949,"INCLINATION":87.9078,"RA_OF_ASC_NODE":221.7653,"ARG_OF_PERICENTER":106.5213,"MEAN_ANOMALY":253.6132,"EPHEMERIS_TYPE":0,"NORAD_CAT_ID":54680,"ELEMENT_SET_NO":999,"REV_AT_EPOCH":17670,"BSTAR":-0.00058018526,"MEAN_MOTION_DOT":-0.00000209,"MEAN_MOTION_DDOT":0},{"OBJECT_NAME":"ONEWEB-0714","OBJECT_ID":"2022-166AR","EPOCH":"2026-07-22T19:49:51.739392","CLASSIFICATION_TYPE":"U","MEAN_MOTION":13.21825548,"ECCENTRICITY":0.00021372,"INCLINATION":87.9225,"RA_OF_ASC_NODE":236.8841,"ARG_OF_PERICENTER":103.4114,"MEAN_ANOMALY":256.7258,"EPHEMERIS_TYPE":0,"NORAD_CAT_ID":54681,"ELEMENT_SET_NO":999,"REV_AT_EPOCH":17624,"BSTAR":0.000069161086,"MEAN_MOTION_DOT":4.2e-7,"MEAN_MOTION_DDOT":0},{"OBJECT_NAME":"ONEWEB-0532","OBJECT_ID":"2023-004A","EPOCH":"2026-07-22T20:59:06.434592","CLASSIFICATION_TYPE":"U","MEAN_MOTION":13.17648823,"ECCENTRICITY":0.00018193,"INCLINATION":87.9155,"RA_OF_ASC_NODE":358.7653,"ARG_OF_PERICENTER":84.169,"MEAN_ANOMALY":275.9649,"EPHEMERIS_TYPE":0,"NORAD_CAT_ID":55140,"ELEMENT_SET_NO":999,"REV_AT_EPOCH":17228,"BSTAR":0.00009269933,"MEAN_MOTION_DOT":4.9e-7,"MEAN_MOTION_DDOT":0},{"OBJECT_NAME":"ONEWEB-0533","OBJECT_ID":"2023-004B","EPOCH":"2026-07-22T19:57:17.973792","CLASSIFICATION_TYPE":"U","MEAN_MOTION":13.12443226,"ECCENTRICITY":0.00016514,"INCLINATION":87.8974,"RA_OF_ASC_NODE":343.5843,"ARG_OF_PERICENTER":99.0045,"MEAN_ANOMALY":261.1271,"EPHEMERIS_TYPE":0,"NORAD_CAT_ID":55141,"ELEMENT_SET_NO":999,"REV_AT_EPOCH":17273,"BSTAR":0.00089213693,"MEAN_MOTION_DOT":0.00000334,"MEAN_MOTION_DDOT":0},{"OBJECT_NAME":"ONEWEB-0541","OBJECT_ID":"2023-004C","EPOCH":"2026-07-22T10:21:13.508640","CLASSIFICATION_TYPE":"U","MEAN_MOTION":13.11417664,"ECCENTRICITY":0.00019604,"INCLINATION":87.8897,"RA_OF_ASC_NODE":14.0428,"ARG_OF_PERICENTER":88.5318,"MEAN_ANOMALY":271.6034,"EPHEMERIS_TYPE":0,"NORAD_CAT_ID":55142,"ELEMENT_SET_NO":999,"REV_AT_EPOCH":17056,"BSTAR":-0.00125187,"MEAN_MOTION_DOT":-0.00000431,"MEAN_MOTION_DDOT":0},{"OBJECT_NAME":"ONEWEB-0543","OBJECT_ID":"2023-004D","EPOCH":"2026-07-22T07:04:20.825472","CLASSIFICATION_TYPE":"U","MEAN_MOTION":13.18687334,"ECCENTRICITY":0.00019676,"INCLINATION":87.9194,"RA_OF_ASC_NODE":328.4876,"ARG_OF_PERICENTER":105.7643,"MEAN_ANOMALY":254.3706,"EPHEMERIS_TYPE":0,"NORAD_CAT_ID":55143,"ELEMENT_SET_NO":999,"REV_AT_EPOCH":17432,"BSTAR":0.00016323999,"MEAN_MOTION_DOT":7.7e-7,"MEAN_MOTION_DDOT":0},{"OBJECT_NAME":"ONEWEB-0544","OBJECT_ID":"2023-004E","EPOCH":"2026-07-22T17:50:12.746976","CLASSIFICATION_TYPE":"U","MEAN_MOTION":13.1868478,"ECCENTRICITY":0.00021042,"INCLINATION":87.9196,"RA_OF_ASC_NODE":328.3982,"ARG_OF_PERICENTER":101.4541,"MEAN_ANOMALY":258.6828,"EPHEMERIS_TYPE":0,"NORAD_CAT_ID":55144,"ELEMENT_SET_NO":999,"REV_AT_EPOCH":17438,"BSTAR":-0.000049184822,"MEAN_MOTION_DOT":-6e-8,"MEAN_MOTION_DDOT":0},{"OBJECT_NAME":"ONEWEB-0560","OBJECT_ID":"2023-004F","EPOCH":"2026-07-22T17:40:30.576864","CLASSIFICATION_TYPE":"U","MEAN_MOTION":13.18686216,"ECCENTRICITY":0.00021283,"INCLINATION":87.9194,"RA_OF_ASC_NODE":328.389,"ARG_OF_PERICENTER":103.5176,"MEAN_ANOMALY":256.6194,"EPHEMERIS_TYPE":0,"NORAD_CAT_ID":55145,"ELEMENT_SET_NO":999,"REV_AT_EPOCH":17439,"BSTAR":-0.000062611047,"MEAN_MOTION_DOT":-1.2e-7,"MEAN_MOTION_DDOT":0},{"OBJECT_NAME":"ONEWEB-0565","OBJECT_ID":"2023-004G","EPOCH":"2026-07-22T08:24:29.181600","CLASSIFICATION_TYPE":"U","MEAN_MOTION":13.18685241,"ECCENTRICITY":0.00022226,"INCLINATION":87.9185,"RA_OF_ASC_NODE":328.49,"ARG_OF_PERICENTER":90.8514,"MEAN_ANOMALY":269.2873,"EPHEMERIS_TYPE":0,"NORAD_CAT_ID":55146,"ELEMENT_SET_NO":999,"REV_AT_EPOCH":17433,"BSTAR":0.000023678902,"MEAN_MOTION_DOT":2.2e-7,"MEAN_MOTION_DDOT":0},{"OBJECT_NAME":"ONEWEB-0567","OBJECT_ID":"2023-004H","EPOCH":"2026-07-22T19:10:20.117280","CLASSIFICATION_TYPE":"U","MEAN_MOTION":13.18684498,"ECCENTRICITY":0.0002244,"INCLINATION":87.9194,"RA_OF_ASC_NODE":328.3884,"ARG_OF_PERICENTER":96.591,"MEAN_ANOMALY":263.5478,"EPHEMERIS_TYPE":0,"NORAD_CAT_ID":55147,"ELEMENT_SET_NO":999,"REV_AT_EPOCH":17439,"BSTAR":-0.000013624523,"MEAN_MOTION_DOT":8e-8,"MEAN_MOTION_DDOT":0},{"OBJECT_NAME":"ONEWEB-0569","OBJECT_ID":"2023-004J","EPOCH":"2026-07-22T17:39:00.821952","CLASSIFICATION_TYPE":"U","MEAN_MOTION":13.13471016,"ECCENTRICITY":0.00028008,"INCLINATION":87.899,"RA_OF_ASC_NODE":313.1493,"ARG_OF_PERICENTER":106.1511,"MEAN_ANOMALY":253.9927,"EPHEMERIS_TYPE":0,"NORAD_CAT_ID":55148,"ELEMENT_SET_NO":999,"REV_AT_EPOCH":17484,"BSTAR":-0.00020130434,"MEAN_MOTION_DOT":-6.1e-7,"MEAN_MOTION_DDOT":0},{"OBJECT_NAME":"ONEWEB-0570","OBJECT_ID":"2023-004K","EPOCH":"2026-07-22T08:02:37.646880","CLASSIFICATION_TYPE":"U","MEAN_MOTION":13.18685201,"ECCENTRICITY":0.00018926,"INCLINATION":87.9194,"RA_OF_ASC_NODE":328.4779,"ARG_OF_PERICENTER":85.6944,"MEAN_ANOMALY":274.4405,"EPHEMERIS_TYPE":0,"NORAD_CAT_ID":55149,"ELEMENT_SET_NO":999,"REV_AT_EPOCH":17432,"BSTAR":0.00011778548,"MEAN_MOTION_DOT":5.9e-7,"MEAN_MOTION_DDOT":0},{"OBJECT_NAME":"ONEWEB-0571","OBJECT_ID":"2023-004L","EPOCH":"2026-07-22T18:48:30.351168","CLASSIFICATION_TYPE":"U","MEAN_MOTION":13.18685709,"ECCENTRICITY":0.00031423,"INCLINATION":87.9193,"RA_OF_ASC_NODE":328.3884,"ARG_OF_PERICENTER":93.6372,"MEAN_ANOMALY":266.512,"EPHEMERIS_TYPE":0,"NORAD_CAT_ID":55150,"ELEMENT_SET_NO":999,"REV_AT_EPOCH":17439,"BSTAR":-0.000089262553,"MEAN_MOTION_DOT":-2.2e-7,"MEAN_MOTION_DDOT":0},{"OBJECT_NAME":"ONEWEB-0572","OBJECT_ID":"2023-004M","EPOCH":"2026-07-22T21:44:02.924160","CLASSIFICATION_TYPE":"U","MEAN_MOTION":13.17648927,"ECCENTRICITY":0.00019381,"INCLINATION":87.9157,"RA_OF_ASC_NODE":358.7608,"ARG_OF_PERICENTER":91.0262,"MEAN_ANOMALY":269.1091,"EPHEMERIS_TYPE":0,"NORAD_CAT_ID":55151,"ELEMENT_SET_NO":999,"REV_AT_EPOCH":17218,"BSTAR":0.00024624051,"MEAN_MOTION_DOT":0.00000108,"MEAN_MOTION_DDOT":0},{"OBJECT_NAME":"ONEWEB-0573","OBJECT_ID":"2023-004N","EPOCH":"2026-07-22T18:38:46.541184","CLASSIFICATION_TYPE":"U","MEAN_MOTION":13.18684018,"ECCENTRICITY":0.00027125,"INCLINATION":87.9194,"RA_OF_ASC_NODE":328.3916,"ARG_OF_PERICENTER":90.527,"MEAN_ANOMALY":269.6173,"EPHEMERIS_TYPE":0,"NORAD_CAT_ID":55152,"ELEMENT_SET_NO":999,"REV_AT_EPOCH":17438,"BSTAR":-0.00003648597,"MEAN_MOTION_DOT":-1e-8,"MEAN_MOTION_DDOT":0}]}
